[{"OBJECT_NAME":"ONEWEB-0395","OBJECT_ID":"2021-132G","EPOCH":"2025-07-28T14:13:05.372256","MEAN_MOTION":13.11414356,"ECCENTRICITY":0.0001434,"INCLINATION":87.8807,"RA_OF_ASC_NODE":85.5819,"ARG_OF_PERICENTER":79.0748,"MEAN_ANOMALY":281.0541,"EPHEMERIS_TYPE":0,"CLASSIFICATION_TYPE":"U","NORAD_CAT_ID":50475,"ELEMENT_SET_NO":999,"REV_AT_EPOCH":17330,"BSTAR":-0.00064104,"MEAN_MOTION_DOT":-2.14e-6,"MEAN_MOTION_DDOT":0},{"OBJECT_NAME":"ONEWEB-0396","OBJECT_ID":"2021-132H","EPOCH":"2025-07-28T18:45:17.457120","MEAN_MOTION":13.18684924,"ECCENTRICITY":0.0001783,"INCLINATION":87.9123,"RA_OF_ASC_NODE":39.694,"ARG_OF_PERICENTER":92.5968,"MEAN_ANOMALY":267.5368,"EPHEMERIS_TYPE":0,"CLASSIFICATION_TYPE":"U","NORAD_CAT_ID":50476,"ELEMENT_SET_NO":999,"REV_AT_EPOCH":18028,"BSTAR":-0.00012508,"MEAN_MOTION_DOT":-3.6e-7,"MEAN_MOTION_DDOT":0},{"OBJECT_NAME":"ONEWEB-0397","OBJECT_ID":"2021-132J","EPOCH":"2025-07-28T13:38:53.640960","MEAN_MOTION":13.18685682,"ECCENTRICITY":0.0001943,"INCLINATION":87.9121,"RA_OF_ASC_NODE":39.7375,"ARG_OF_PERICENTER":93.7666,"MEAN_ANOMALY":266.3688,"EPHEMERIS_TYPE":0,"CLASSIFICATION_TYPE":"U","NORAD_CAT_ID":50477,"ELEMENT_SET_NO":999,"REV_AT_EPOCH":17896,"BSTAR":0.00010681,"MEAN_MOTION_DOT":5.5e-7,"MEAN_MOTION_DDOT":0},{"OBJECT_NAME":"ONEWEB-0398","OBJECT_ID":"2021-132K","EPOCH":"2025-07-28T17:06:27.088128","MEAN_MOTION":13.11419157,"ECCENTRICITY":0.0001576,"INCLINATION":87.8808,"RA_OF_ASC_NODE":85.521,"ARG_OF_PERICENTER":65.7463,"MEAN_ANOMALY":294.383,"EPHEMERIS_TYPE":0,"CLASSIFICATION_TYPE":"U","NORAD_CAT_ID":50478,"ELEMENT_SET_NO":999,"REV_AT_EPOCH":17449,"BSTAR":0.0013072,"MEAN_MOTION_DOT":4.76e-6,"MEAN_MOTION_DDOT":0},{"OBJECT_NAME":"ONEWEB-0399","OBJECT_ID":"2021-132L","EPOCH":"2025-07-28T16:46:54.591744","MEAN_MOTION":13.1141905,"ECCENTRICITY":0.0001834,"INCLINATION":87.8808,"RA_OF_ASC_NODE":85.5479,"ARG_OF_PERICENTER":89.5879,"MEAN_ANOMALY":270.5459,"EPHEMERIS_TYPE":0,"CLASSIFICATION_TYPE":"U","NORAD_CAT_ID":50479,"ELEMENT_SET_NO":999,"REV_AT_EPOCH":17448,"BSTAR":-0.00065004,"MEAN_MOTION_DOT":-2.18e-6,"MEAN_MOTION_DDOT":0},{"OBJECT_NAME":"ONEWEB-0400","OBJECT_ID":"2021-132M","EPOCH":"2025-07-28T13:08:01.973184","MEAN_MOTION":13.1868694,"ECCENTRICITY":0.0001671,"INCLINATION":87.9122,"RA_OF_ASC_NODE":39.7321,"ARG_OF_PERICENTER":83.4758,"MEAN_ANOMALY":276.6564,"EPHEMERIS_TYPE":0,"CLASSIFICATION_TYPE":"U","NORAD_CAT_ID":50480,"ELEMENT_SET_NO":999,"REV_AT_EPOCH":17895,"BSTAR":0.00015947,"MEAN_MOTION_DOT":7.6e-7,"MEAN_MOTION_DDOT":0},{"OBJECT_NAME":"ONEWEB-0401","OBJECT_ID":"2021-132N","EPOCH":"2025-07-28T14:12:09.611424","MEAN_MOTION":13.18687017,"ECCENTRICITY":0.0002034,"INCLINATION":87.9123,"RA_OF_ASC_NODE":39.7189,"ARG_OF_PERICENTER":91.121,"MEAN_ANOMALY":269.0155,"EPHEMERIS_TYPE":0,"CLASSIFICATION_TYPE":"U","NORAD_CAT_ID":50481,"ELEMENT_SET_NO":999,"REV_AT_EPOCH":17896,"BSTAR":4.0172e-6,"MEAN_MOTION_DOT":1.5e-7,"MEAN_MOTION_DDOT":0},{"OBJECT_NAME":"ONEWEB-0402","OBJECT_ID":"2021-132P","EPOCH":"2025-07-28T18:47:41.882496","MEAN_MOTION":13.18685764,"ECCENTRICITY":0.00024,"INCLINATION":87.9122,"RA_OF_ASC_NODE":39.6745,"ARG_OF_PERICENTER":94.0949,"MEAN_ANOMALY":266.0457,"EPHEMERIS_TYPE":0,"CLASSIFICATION_TYPE":"U","NORAD_CAT_ID":50482,"ELEMENT_SET_NO":999,"REV_AT_EPOCH":18029,"BSTAR":0.00010737,"MEAN_MOTION_DOT":5.5e-7,"MEAN_MOTION_DDOT":0},{"OBJECT_NAME":"ONEWEB-0403","OBJECT_ID":"2021-132Q","EPOCH":"2025-07-28T13:55:32.686752","MEAN_MOTION":13.18687034,"ECCENTRICITY":0.0001714,"INCLINATION":87.9123,"RA_OF_ASC_NODE":39.7332,"ARG_OF_PERICENTER":90.0663,"MEAN_ANOMALY":270.0666,"EPHEMERIS_TYPE":0,"CLASSIFICATION_TYPE":"U","NORAD_CAT_ID":50483,"ELEMENT_SET_NO":999,"REV_AT_EPOCH":17894,"BSTAR":5.5268e-5,"MEAN_MOTION_DOT":3.5e-7,"MEAN_MOTION_DDOT":0},{"OBJECT_NAME":"ONEWEB-0404","OBJECT_ID":"2021-132R","EPOCH":"2025-07-28T21:49:39.147168","MEAN_MOTION":13.1141719,"ECCENTRICITY":0.0001501,"INCLINATION":87.8811,"RA_OF_ASC_NODE":85.5099,"ARG_OF_PERICENTER":88.4976,"MEAN_ANOMALY":271.6324,"EPHEMERIS_TYPE":0,"CLASSIFICATION_TYPE":"U","NORAD_CAT_ID":50484,"ELEMENT_SET_NO":999,"REV_AT_EPOCH":17459,"BSTAR":-0.0014018,"MEAN_MOTION_DOT":-4.84e-6,"MEAN_MOTION_DDOT":0},{"OBJECT_NAME":"ONEWEB-0405","OBJECT_ID":"2021-132S","EPOCH":"2025-07-28T19:44:41.059680","MEAN_MOTION":13.18687079,"ECCENTRICITY":0.0002059,"INCLINATION":87.9122,"RA_OF_ASC_NODE":39.6716,"ARG_OF_PERICENTER":94.5187,"MEAN_ANOMALY":265.618,"EPHEMERIS_TYPE":0,"CLASSIFICATION_TYPE":"U","NORAD_CAT_ID":50485,"ELEMENT_SET_NO":999,"REV_AT_EPOCH":18066,"BSTAR":-7.4753e-5,"MEAN_MOTION_DOT":-1.7e-7,"MEAN_MOTION_DDOT":0},{"OBJECT_NAME":"ONEWEB-0406","OBJECT_ID":"2021-132T","EPOCH":"2025-07-28T14:02:39.024096","MEAN_MOTION":13.18685638,"ECCENTRICITY":0.0001264,"INCLINATION":87.9123,"RA_OF_ASC_NODE":39.7413,"ARG_OF_PERICENTER":92.43,"MEAN_ANOMALY":267.6976,"EPHEMERIS_TYPE":0,"CLASSIFICATION_TYPE":"U","NORAD_CAT_ID":50486,"ELEMENT_SET_NO":999,"REV_AT_EPOCH":17897,"BSTAR":4.2444e-5,"MEAN_MOTION_DOT":3.0e-7,"MEAN_MOTION_DDOT":0},{"OBJECT_NAME":"ONEWEB-0407","OBJECT_ID":"2021-132U","EPOCH":"2025-07-28T13:53:09.858048","MEAN_MOTION":13.18685468,"ECCENTRICITY":0.0001886,"INCLINATION":87.9122,"RA_OF_ASC_NODE":39.728,"ARG_OF_PERICENTER":93.1776,"MEAN_ANOMALY":266.9572,"EPHEMERIS_TYPE":0,"CLASSIFICATION_TYPE":"U","NORAD_CAT_ID":50487,"ELEMENT_SET_NO":999,"REV_AT_EPOCH":17891,"BSTAR":0.00010425,"MEAN_MOTION_DOT":5.4e-7,"MEAN_MOTION_DDOT":0},{"OBJECT_NAME":"ONEWEB-0409","OBJECT_ID":"2021-132V","EPOCH":"2025-07-28T14:27:44.790336","MEAN_MOTION":13.114173,"ECCENTRICITY":0.0001441,"INCLINATION":87.8804,"RA_OF_ASC_NODE":85.5325,"ARG_OF_PERICENTER":80.0296,"MEAN_ANOMALY":280.0994,"EPHEMERIS_TYPE":0,"CLASSIFICATION_TYPE":"U","NORAD_CAT_ID":50488,"ELEMENT_SET_NO":999,"REV_AT_EPOCH":17317,"BSTAR":-0.0013811,"MEAN_MOTION_DOT":-4.77e-6,"MEAN_MOTION_DDOT":0},{"OBJECT_NAME":"ONEWEB-0412","OBJECT_ID":"2021-132W","EPOCH":"2025-07-28T13:36:31.291776","MEAN_MOTION":13.18687594,"ECCENTRICITY":0.0002145,"INCLINATION":87.912,"RA_OF_ASC_NODE":39.7436,"ARG_OF_PERICENTER":93.3631,"MEAN_ANOMALY":266.7746,"EPHEMERIS_TYPE":0,"CLASSIFICATION_TYPE":"U","NORAD_CAT_ID":50489,"ELEMENT_SET_NO":999,"REV_AT_EPOCH":17900,"BSTAR":7.1005e-5,"MEAN_MOTION_DOT":4.1e-7,"MEAN_MOTION_DDOT":0},{"OBJECT_NAME":"ONEWEB-0413","OBJECT_ID":"2021-132X","EPOCH":"2025-07-28T13:43:39.542016","MEAN_MOTION":13.18687587,"ECCENTRICITY":0.0002198,"INCLINATION":87.9123,"RA_OF_ASC_NODE":39.7578,"ARG_OF_PERICENTER":88.2621,"MEAN_ANOMALY":271.8763,"EPHEMERIS_TYPE":0,"CLASSIFICATION_TYPE":"U","NORAD_CAT_ID":50490,"ELEMENT_SET_NO":999,"REV_AT_EPOCH":17894,"BSTAR":0.00011353,"MEAN_MOTION_DOT":5.8e-7,"MEAN_MOTION_DDOT":0},{"OBJECT_NAME":"ONEWEB-0414","OBJECT_ID":"2021-132Y","EPOCH":"2025-07-28T18:50:03.002208","MEAN_MOTION":13.186872,"ECCENTRICITY":0.0001952,"INCLINATION":87.9121,"RA_OF_ASC_NODE":39.676,"ARG_OF_PERICENTER":95.1156,"MEAN_ANOMALY":265.0199,"EPHEMERIS_TYPE":0,"CLASSIFICATION_TYPE":"U","NORAD_CAT_ID":50491,"ELEMENT_SET_NO":999,"REV_AT_EPOCH":18029,"BSTAR":9.5536e-5,"MEAN_MOTION_DOT":5.1e-7,"MEAN_MOTION_DDOT":0},{"OBJECT_NAME":"ONEWEB-0417","OBJECT_ID":"2021-132Z","EPOCH":"2025-07-28T13:34:09.654528","MEAN_MOTION":13.18682936,"ECCENTRICITY":0.0001608,"INCLINATION":87.9126,"RA_OF_ASC_NODE":39.7509,"ARG_OF_PERICENTER":93.1889,"MEAN_ANOMALY":266.9427,"EPHEMERIS_TYPE":0,"CLASSIFICATION_TYPE":"U","NORAD_CAT_ID":50492,"ELEMENT_SET_NO":999,"REV_AT_EPOCH":17895,"BSTAR":0.0027032,"MEAN_MOTION_DOT":1.079e-5,"MEAN_MOTION_DDOT":0},{"OBJECT_NAME":"ONEWEB-0418","OBJECT_ID":"2021-132AA","EPOCH":"2025-07-28T13:48:11.694240","MEAN_MOTION":13.18686386,"ECCENTRICITY":0.0001552,"INCLINATION":87.9122,"RA_OF_ASC_NODE":39.7354,"ARG_OF_PERICENTER":98.0572,"MEAN_ANOMALY":262.0736,"EPHEMERIS_TYPE":0,"CLASSIFICATION_TYPE":"U","NORAD_CAT_ID":50493,"ELEMENT_SET_NO":999,"REV_AT_EPOCH":17901,"BSTAR":5.7454e-5,"MEAN_MOTION_DOT":3.6e-7,"MEAN_MOTION_DDOT":0},{"OBJECT_NAME":"ONEWEB-0419","OBJECT_ID":"2021-132AB","EPOCH":"2025-07-28T14:14:32.296704","MEAN_MOTION":13.1868677,"ECCENTRICITY":0.0001482,"INCLINATION":87.9119,"RA_OF_ASC_NODE":39.7342,"ARG_OF_PERICENTER":86.4347,"MEAN_ANOMALY":273.6954,"EPHEMERIS_TYPE":0,"CLASSIFICATION_TYPE":"U","NORAD_CAT_ID":50494,"ELEMENT_SET_NO":999,"REV_AT_EPOCH":17893,"BSTAR":4.6711e-6,"MEAN_MOTION_DOT":1.5e-7,"MEAN_MOTION_DDOT":0},{"OBJECT_NAME":"ONEWEB-0420","OBJECT_ID":"2021-132AC","EPOCH":"2025-07-28T18:52:25.473216","MEAN_MOTION":13.18687829,"ECCENTRICITY":0.0002105,"INCLINATION":87.9121,"RA_OF_ASC_NODE":39.7054,"ARG_OF_PERICENTER":82.1961,"MEAN_ANOMALY":277.941,"EPHEMERIS_TYPE":0,"CLASSIFICATION_TYPE":"U","NORAD_CAT_ID":50495,"ELEMENT_SET_NO":999,"REV_AT_EPOCH":18025,"BSTAR":6.0893e-5,"MEAN_MOTION_DOT":3.7e-7,"MEAN_MOTION_DDOT":0},{"OBJECT_NAME":"ONEWEB-0421","OBJECT_ID":"2021-132AD","EPOCH":"2025-07-28T13:15:08.371872","MEAN_MOTION":13.18687197,"ECCENTRICITY":0.0002017,"INCLINATION":87.9122,"RA_OF_ASC_NODE":39.7452,"ARG_OF_PERICENTER":96.5346,"MEAN_ANOMALY":263.6016,"EPHEMERIS_TYPE":0,"CLASSIFICATION_TYPE":"U","NORAD_CAT_ID":50496,"ELEMENT_SET_NO":999,"REV_AT_EPOCH":17896,"BSTAR":0.00013745,"MEAN_MOTION_DOT":6.7e-7,"MEAN_MOTION_DDOT":0},{"OBJECT_NAME":"ONEWEB-0424","OBJECT_ID":"2021-132AE","EPOCH":"2025-07-28T19:35:11.197248","MEAN_MOTION":13.18686005,"ECCENTRICITY":0.000147,"INCLINATION":87.9124,"RA_OF_ASC_NODE":39.6864,"ARG_OF_PERICENTER":78.8823,"MEAN_ANOMALY":281.2475,"EPHEMERIS_TYPE":0,"CLASSIFICATION_TYPE":"U","NORAD_CAT_ID":50497,"ELEMENT_SET_NO":999,"REV_AT_EPOCH":18030,"BSTAR":-7.8762e-5,"MEAN_MOTION_DOT":-1.8e-7,"MEAN_MOTION_DDOT":0},{"OBJECT_NAME":"ONEWEB-0426","OBJECT_ID":"2021-132AF","EPOCH":"2025-07-28T13:10:22.806912","MEAN_MOTION":13.1868667,"ECCENTRICITY":0.0001943,"INCLINATION":87.912,"RA_OF_ASC_NODE":39.7339,"ARG_OF_PERICENTER":111.6539,"MEAN_ANOMALY":248.48,"EPHEMERIS_TYPE":0,"CLASSIFICATION_TYPE":"U","NORAD_CAT_ID":50498,"ELEMENT_SET_NO":999,"REV_AT_EPOCH":17893,"BSTAR":0.00015517,"MEAN_MOTION_DOT":7.4e-7,"MEAN_MOTION_DDOT":0}]
